BEIDOU-2 IGSO-4         
1 37763U 11038A   26160.68953514  .00000092  00000+0  00000+0 0  9994
2 37763  54.5986 165.7393 0159307 231.3987 202.2417  1.00286741 54575
ASTRA 1N                
1 37775U 11041A   26161.34372778  .00000137  00000+0  00000+0 0  9992
2 37775   0.0836  38.0349 0006202  56.1179 307.5133  1.00272668 44455
BSAT-3C (JCSAT-110R)    
1 37776U 11041B   26160.00721381 -.00000334  00000+0  00000+0 0  9993
2 37776   0.0180 326.2334 0000517 202.1972 201.5180  1.00271328 50387
PAKSAT-1R               
1 37779U 11042A   26161.20489808  .00000171  00000+0  00000+0 0  9993
2 37779   0.6698  84.6659 0003157 346.9846 298.7073  1.00275433 54402
SES-2                   
1 37809U 11049A   26161.32266766 -.00000178  00000+0  00000+0 0  9991
2 37809   0.0475 114.8945 0002774 322.4363 210.5187  1.00270903 53891
ARABSAT-5C              
1 37810U 11049B   26161.34390110  .00000141  00000+0  00000+0 0  9995
2 37810   0.0481 359.3724 0003491 101.7620 301.3938  1.00273874 53963
EUTELSAT 7 WEST A       
1 37816U 11051A   26161.33844109 -.00000043  00000+0  00000+0 0  9997
2 37816   0.0607 357.9212 0004134  94.1975 281.1037  1.00271189 53803
QUETZSAT 1              
1 37826U 11054A   26161.32466102 -.00000224  00000+0  00000+0 0  9994
2 37826   0.0105 347.5179 0002689  94.5149 216.5434  1.00271027 49803
INTELSAT 18 (IS-18)     
1 37834U 11056A   26160.87655971  .00000070  00000+0  00000+0 0  9996
2 37834   0.0170 310.4216 0002098 144.0429 299.3507  1.00272225 53739
EUTELSAT 16A            
1 37836U 11057A   26161.34312110  .00000121  00000+0  00000+0 0  9994
2 37836   0.0423   0.5364 0005901  81.6027 316.0664  1.00271611  7265
VIASAT-1                
1 37843U 11059A   26161.31708935 -.00000006  00000+0  00000+0 0  9998
2 37843   0.0026 358.5658 0002090  85.4971 173.6622  1.00269426 47255
ASIASAT 7               
1 37933U 11069A   26161.50339451 -.00000316  00000+0  00000+0 0  9997
2 37933   0.0179  12.7308 0001331  59.3678 113.4818  1.00268040 44792
BEIDOU-2 IGSO-5         
1 37948U 11073A   26161.28629306 -.00000165  00000+0  00000+0 0  9996
2 37948  47.6920 271.6328 0113711 221.6344 320.2028  1.00274435 53063
LUCH-5A                 
1 37951U 11074B   26161.51555569 -.00000036  00000+0  00000+0 0  9993
2 37951   8.7362  73.9054 0002232  19.4449 158.1067  1.00269771 52986
NIGCOMSAT 1R            
1 38014U 11077A   26161.27701968  .00000162  00000+0  00000+0 0  9995
2 38014   0.0322 126.0663 0002447 223.9433  50.8471  1.00272345 52884
WGS F4 (USA 233)        
1 38070U 12003A   26161.42874747  .00000000  00000+0  00000+0 0  9991
2 38070   0.0207 346.8130 0000712 302.7475 211.9884  1.00268860 44082
SES-4                   
1 38087U 12007A   26161.33558108 -.00000151  00000+0  00000+0 0  9991
2 38087   0.0277  33.7141 0002527  54.1845 269.5983  1.00269984 52150
BEIDOU-2 G5             
1 38091U 12008A   26161.49412113  .00000074  00000+0  00000+0 0  9992
2 38091   3.5559  69.7396 0009265 275.0536 150.6137  1.00270457 52309
MUOS-1                  
1 38093U 12009A   26161.24873492 -.00000113  00000+0  00000+0 0  9994
2 38093   5.4626  47.1626 0058840   1.2915 199.7259  1.00270548 52373
INTELSAT 22 (IS-22)     
1 38098U 12011A   26161.45739475 -.00000041  00000+0  00000+0 0  9997
2 38098   0.0121 332.2386 0001500 101.6989  61.6205  1.00272209  7124
APSTAR-7                
1 38107U 12013A   26161.49767450  .00000000  00000+0  00000+0 0  9992
2 38107   0.0188 343.4728 0002626 109.8355  61.1886  1.00270776 51743
YAHSAT 1B               
1 38245U 12016A   26161.27805969  .00000144  00000+0  00000+0 0  9991
2 38245   0.0924  90.5859 0002551  13.6173 302.1287  1.00268817 45532
AEHF-2 (USA 235)        
1 38254U 12019A   26161.05141402 -.00000121  00000+0  00000+0 0  9991
2 38254   6.6351  57.5422 0002378  11.7025 191.1527  1.00270296  6915
JCSAT-13                
1 38331U 12023A   26161.53169770 -.00000339  00000+0  00000+0 0  9994
2 38331   0.0229  58.4272 0002877  43.2674 112.6192  1.00270993 51471
VINASAT-2               
1 38332U 12023B   26161.48864125 -.00000311  00000+0  00000+0 0  9995
2 38332   0.0143 339.4076 0002294 112.8415 114.3654  1.00270668 46598
NIMIQ 6                 
1 38342U 12026A   26161.32188766 -.00000156  00000+0  00000+0 0  9999
2 38342   0.0340 284.3830 0002685 153.1522 205.9345  1.00273584 50347
ZHONGXING-2A            
1 38352U 12028A   26161.50200785 -.00000276  00000+0  00000+0 0  9991
2 38352   1.4361  83.9666 0003815  42.6124  51.2431  1.00273152 51230
INTELSAT 19 (IS-19)     
1 38356U 12030A   26161.46503130 -.00000039  00000+0  00000+0 0  9990
2 38356   0.0140 330.1636 0002987 117.4538 144.6260  1.00271863 50386
ECHOSTAR 17             
1 38551U 12035A   26161.24743491  .00000000  00000+0  00000+0 0  9991
2 38551   0.0223 346.5869 0001773  98.5559 155.4391  1.00266577 50996
METEOSAT-10 (MSG-3)     
1 38552U 12035B   26161.34000110  .00000011  00000+0  00000+0 0  9999
2 38552   4.6545  61.0471 0001507 332.8996 347.4002  1.00275881 50783
SES-5                   
1 38652U 12036A   26161.34095442  .00000051  00000+0  00000+0 0  9997
2 38652   0.0500 310.7318 0001867 130.5092 305.1935  1.00271636 44387
INTELSAT 20 (IS-20)     
1 38740U 12043A   26161.46850264 -.00000004  00000+0  00000+0 0  9996
2 38740   0.0080  69.1518 0001347  75.1399 351.6991  1.00257624 50681
