OBJECT_NAME,OBJECT_ID,EPOCH,MEAN_MOTION,ECCENTRICITY,INCLINATION,RA_OF_ASC_NODE,ARG_OF_PERICENTER,MEAN_ANOMALY,EPHEMERIS_TYPE,CLASSIFICATION_TYPE,NORAD_CAT_ID,ELEMENT_SET_NO,REV_AT_EPOCH,BSTAR,MEAN_MOTION_DOT,MEAN_MOTION_DDOT
BEIDOU-2 IGSO-4,2011-038A,2026-06-09T16:32:55.836096,1.00286741,.01593078,54.5986,165.7393,231.3987,202.2417,0,U,37763,999,5457,0,.92E-6,0
ASTRA 1N,2011-041A,2026-06-10T08:14:58.080192,1.00272668,.0006202,0.0836,38.0349,56.1179,307.5133,0,U,37775,999,4445,0,.137E-5,0
BSAT-3C (JCSAT-110R),2011-041B,2026-06-09T00:10:23.273184,1.00271328,.00005174,0.0180,326.2334,202.1972,201.5180,0,U,37776,999,5038,0,-.334E-5,0
PAKSAT-1R,2011-042A,2026-06-10T04:55:03.194112,1.00275433,.0003157,0.6698,84.6659,346.9846,298.7073,0,U,37779,999,5440,0,.171E-5,0
SES-2,2011-049A,2026-06-10T07:44:38.485824,1.00270903,.0002774,0.0475,114.8945,322.4363,210.5187,0,U,37809,999,5389,0,-.178E-5,0
ARABSAT-5C,2011-049B,2026-06-10T08:15:13.055040,1.00273874,.0003491,0.0481,359.3724,101.7620,301.3938,0,U,37810,999,5396,0,.141E-5,0
EUTELSAT 7 WEST A,2011-051A,2026-06-10T08:07:21.310176,1.00271189,.0004134,0.0607,357.9212,94.1975,281.1037,0,U,37816,999,5380,0,-.43E-6,0
QUETZSAT 1,2011-054A,2026-06-10T07:47:30.712128,1.00271027,.0002689,0.0105,347.5179,94.5149,216.5434,0,U,37826,999,4980,0,-.224E-5,0
INTELSAT 18 (IS-18),2011-056A,2026-06-09T21:02:14.758944,1.00272225,.00020989,0.0170,310.4216,144.0429,299.3507,0,U,37834,999,5373,0,.7E-6,0
EUTELSAT 16A,2011-057A,2026-06-10T08:14:05.663040,1.00271611,.0005901,0.0423,0.5364,81.6027,316.0664,0,U,37836,999,726,0,.121E-5,0
VIASAT-1,2011-059A,2026-06-10T07:36:36.519840,1.00269426,.000209,0.0026,358.5658,85.4971,173.6622,0,U,37843,999,4725,0,-.6E-7,0
ASIASAT 7,2011-069A,2026-06-10T12:04:53.285664,1.00268040,.0001331,0.0179,12.7308,59.3678,113.4818,0,U,37933,999,4479,0,-.316E-5,0
BEIDOU-2 IGSO-5,2011-073A,2026-06-10T06:52:15.720384,1.00274435,.0113711,47.6920,271.6328,221.6344,320.2028,0,U,37948,999,5306,0,-.165E-5,0
LUCH-5A,2011-074B,2026-06-10T12:22:24.011616,1.00269771,.0002232,8.7362,73.9054,19.4449,158.1067,0,U,37951,999,5298,0,-.36E-6,0
NIGCOMSAT 1R,2011-077A,2026-06-10T06:38:54.500352,1.00272345,.0002447,0.0322,126.0663,223.9433,50.8471,0,U,38014,999,5288,0,.162E-5,0
WGS F4 (USA 233),2012-003A,2026-06-10T10:17:23.781408,1.00268860,.0000712,0.0207,346.8130,302.7475,211.9884,0,U,38070,999,4408,0,0,0
SES-4,2012-007A,2026-06-10T08:03:14.205312,1.00269984,.0002527,0.0277,33.7141,54.1845,269.5983,0,U,38087,999,5215,0,-.151E-5,0
BEIDOU-2 G5,2012-008A,2026-06-10T11:51:32.065632,1.00270457,.0009265,3.5559,69.7396,275.0536,150.6137,0,U,38091,999,5230,0,.74E-6,0
MUOS-1,2012-009A,2026-06-10T05:58:10.697088,1.00270548,.005884,5.4626,47.1626,1.2915,199.7259,0,U,38093,999,5237,0,-.113E-5,0
INTELSAT 22 (IS-22),2012-011A,2026-06-10T10:58:38.906400,1.00272209,.00015,0.0121,332.2386,101.6989,61.6205,0,U,38098,999,712,0,-.41E-6,0
APSTAR-7,2012-013A,2026-06-10T11:56:39.076800,1.00270776,.0002626,0.0188,343.4728,109.8355,61.1886,0,U,38107,999,5174,0,0,0
YAHSAT 1B,2012-016A,2026-06-10T06:40:24.357216,1.00268817,.0002551,0.0924,90.5859,13.6173,302.1287,0,U,38245,999,4553,0,.144E-5,0
AEHF-2 (USA 235),2012-019A,2026-06-10T01:14:02.171328,1.00270296,.00023781,6.6351,57.5422,11.7025,191.1527,0,U,38254,999,691,0,-.121E-5,0
JCSAT-13,2012-023A,2026-06-10T12:45:38.681280,1.00270993,.0002877,0.0229,58.4272,43.2674,112.6192,0,U,38331,999,5147,0,-.339E-5,0
VINASAT-2,2012-023B,2026-06-10T11:43:38.604000,1.00270668,.0002294,0.0143,339.4076,112.8415,114.3654,0,U,38332,999,4659,0,-.311E-5,0
NIMIQ 6,2012-026A,2026-06-10T07:43:31.093824,1.00273584,.0002685,0.0340,284.3830,153.1522,205.9345,0,U,38342,999,5034,0,-.156E-5,0
ZHONGXING-2A,2012-028A,2026-06-10T12:02:53.478240,1.00273152,.0003815,1.4361,83.9666,42.6124,51.2431,0,U,38352,999,5123,0,-.276E-5,0
INTELSAT 19 (IS-19),2012-030A,2026-06-10T11:09:38.704320,1.00271863,.0002987,0.0140,330.1636,117.4538,144.6260,0,U,38356,999,5038,0,-.39E-6,0
ECHOSTAR 17,2012-035A,2026-06-10T05:56:18.376224,1.00266577,.0001773,0.0223,346.5869,98.5559,155.4391,0,U,38551,999,5099,0,0,0
METEOSAT-10 (MSG-3),2012-035B,2026-06-10T08:09:36.095040,1.00275881,.0001507,4.6545,61.0471,332.8996,347.4002,0,U,38552,999,5078,0,.11E-6,0
SES-5,2012-036A,2026-06-10T08:10:58.461888,1.00271636,.0001867,0.0500,310.7318,130.5092,305.1935,0,U,38652,999,4438,0,.51E-6,0
INTELSAT 20 (IS-20),2012-043A,2026-06-10T11:14:38.628096,1.00257624,.0001347,0.0080,69.1518,75.1399,351.6991,0,U,38740,999,5068,0,-.4E-7,0
